
# Worst residual: 100.57 km
# MJD 59605.000000 (2022 Jan 26  0:00)
C1AUGE1 = ZTF0Edd = 'Multijunk'
1 89983U 00000AAQ 22026.49919926  .00000000  00000-0  00000-0 0 15276
2 89983 022.9517 351.1620 6567288 323.9877 149.1577 00.38563561    05

# Worst residual: 128.09 km
# MJD 59606.000000 (2022 Jan 27  0:00)
C1AUGE1 = ZTF0Edd = 'Multijunk'
1 89983U 00000AAQ 22027.49919926  .00000000  00000-0  00000-0 0 15277
2 89983 023.0312 351.0467 6626221 325.0120 286.0478 00.38988017    03

# Worst residual: 132.09 km
# MJD 59607.000000 (2022 Jan 28  0:00)
C1AUGE1 = ZTF0Edd = 'Multijunk'
1 89983U 00000AAQ 22028.49919926  .00000000  00000-0  00000-0 0 15278
2 89983 023.0525 351.0278 6659536 326.6221 066.1077 00.38954873    08

# Worst residual: 107.75 km
# MJD 59608.000000 (2022 Jan 29  0:00)
C1AUGE1 = ZTF0Edd = 'Multijunk'
1 89983U 00000AAQ 22029.49919926  .00000000  00000-0  00000-0 0 15279
2 89983 023.1084 350.8607 6674180 327.6341 202.7073 00.38594907    00

# Worst residual: 158.49 km
# MJD 59609.000000 (2022 Jan 30  0:00)
C1AUGE1 = ZTF0Edd = 'Multijunk'
1 89983U 00000AAQ 22030.49919926  .00000000  00000-0  00000-0 0 15271
2 89983 023.1818 350.8260 6736063 329.1152 340.8705 00.39638991    05

# Worst residual: 97.48 km
# MJD 59610.000000 (2022 Jan 31  0:00)
C1AUGE1 = ZTF0Edd = 'Multijunk'
1 89983U 00000AAQ 22031.49919926  .00000000  00000-0  00000-0 0 15272
2 89983 023.1938 350.7361 6746192 330.3654 120.0409 00.38637608    06

# Worst residual: 108.59 km
# MJD 59611.000000 (2022 Feb  1  0:00)
C1AUGE1 = ZTF0Edd = 'Multijunk'
1 89983U 00000AAQ 22032.49919926  .00000000  00000-0  00000-0 0 15273
2 89983 023.2874 350.6010 6791103 331.2516 256.5616 00.38796592    08

# Worst residual: 199.95 km
# MJD 59612.000000 (2022 Feb  2  0:00)
C1AUGE1 = ZTF0Edd = 'Multijunk'
1 89983U 00000AAQ 22033.49919926  .00000000  00000-0  00000-0 0 15274
2 89983 023.3183 350.6114 6842203 332.5960 036.6848 00.39372523    01

# Worst residual: 98.66 km
# MJD 59613.000000 (2022 Feb  3  0:00)
C1AUGE1 = ZTF0Edd = 'Multijunk'
1 89983U 00000AAQ 22034.49919926  .00000000  00000-0  00000-0 0 15275
2 89983 023.3623 350.4668 6849487 333.8267 173.7459 00.38574020    03

# Worst residual: 175.41 km
# MJD 59614.000000 (2022 Feb  4  0:00)
C1AUGE1 = ZTF0Edd = 'Multijunk'
1 89983U 00000AAQ 22035.49919926  .00000000  00000-0  00000-0 0 15276
2 89983 023.4377 350.4043 6921425 335.0525 311.0523 00.39301096    02

# Worst residual: 80.21 km
# MJD 59615.000000 (2022 Feb  5  0:00)
C1AUGE1 = ZTF0Edd = 'Multijunk'
1 89983U 00000AAQ 22036.49919926  .00000000  00000-0  00000-0 0 15277
2 89983 023.4680 350.3664 6927441 336.4209 090.9707 00.38745554    02

# Worst residual: 104.27 km
# MJD 59616.000000 (2022 Feb  6  0:00)
C1AUGE1 = ZTF0Edd = 'Multijunk'
1 89983U 00000AAQ 22037.49919926  .00000000  00000-0  00000-0 0 15278
2 89983 023.5594 350.2321 6964502 337.2137 227.5327 00.38693772    04

# Worst residual: 122.43 km
# MJD 59617.000000 (2022 Feb  7  0:00)
C1AUGE1 = ZTF0Edd = 'Multijunk'
1 89983U 00000AAQ 22038.49919926  .00000000  00000-0  00000-0 0 15279
2 89983 023.6089 350.2287 7007177 338.5222 006.8595 00.39734773    04

# Worst residual: 90.36 km
# MJD 59618.000000 (2022 Feb  8  0:00)
C1AUGE1 = ZTF0Edd = 'Multijunk'
1 89983U 00000AAQ 22039.49919926  .00000000  00000-0  00000-0 0 15270
2 89983 023.6363 350.1361 7026102 339.6900 144.9884 00.38597536    03

# Worst residual: 113.25 km
# MJD 59619.000000 (2022 Feb  9  0:00)
C1AUGE1 = ZTF0Edd = 'Multijunk'
1 89983U 00000AAQ 22040.49919926  .00000000  00000-0  00000-0 0 15272
2 89983 023.7344 350.0751 7080879 340.5369 281.8942 00.38968057    02

# Worst residual: 136.95 km
# MJD 59620.000000 (2022 Feb 10  0:00)
C1AUGE1 = ZTF0Edd = 'Multijunk'
1 89983U 00000AAQ 22041.49919926  .00000000  00000-0  00000-0 0 15273
2 89983 023.7529 350.0652 7118817 341.9486 062.0671 00.39001579    02

# Worst residual: 92.39 km
# MJD 59621.000000 (2022 Feb 11  0:00)
C1AUGE1 = ZTF0Edd = 'Multijunk'
1 89983U 00000AAQ 22042.49919926  .00000000  00000-0  00000-0 0 15274
2 89983 023.8217 349.9502 7135514 342.8034 198.8968 00.38629247    04

# Worst residual: 164.55 km
# MJD 59622.000000 (2022 Feb 12  0:00)
C1AUGE1 = ZTF0Edd = 'Multijunk'
1 89983U 00000AAQ 22043.49919926  .00000000  00000-0  00000-0 0 15275
2 89983 023.9006 349.9585 7195738 344.0544 337.0804 00.39596995    06

# Worst residual: 97.53 km
# MJD 59623.000000 (2022 Feb 13  0:00)
C1AUGE1 = ZTF0Edd = 'Multijunk'
1 89983U 00000AAQ 22044.49919926  .00000000  00000-0  00000-0 0 15276
2 89983 023.9145 349.8907 7207037 345.1205 116.4281 00.38667195    07

# Worst residual: 90.76 km
# MJD 59624.000000 (2022 Feb 14  0:00)
C1AUGE1 = ZTF0Edd = 'Multijunk'
1 89983U 00000AAQ 22045.49919926  .00000000  00000-0  00000-0 0 15277
2 89983 024.0024 349.8259 7255166 345.8316 253.0790 00.38808355    09

# Worst residual: 216.63 km
# MJD 59625.000000 (2022 Feb 15  0:00)
C1AUGE1 = ZTF0Edd = 'Multijunk'
1 89983U 00000AAQ 22046.49919926  .00000000  00000-0  00000-0 0 15278
2 89983 024.0352 349.8496 7304520 346.9941 033.2523 00.39407807    01

# Worst residual: 109.25 km
# MJD 59626.000000 (2022 Feb 16  0:00)
C1AUGE1 = ZTF0Edd = 'Multijunk'
1 89983U 00000AAQ 22047.49919926  .00000000  00000-0  00000-0 0 15279
2 89983 024.0664 349.7689 7316335 348.0521 170.3302 00.38579105    02

# Worst residual: 176.24 km
# MJD 59627.000000 (2022 Feb 17  0:00)
C1AUGE1 = ZTF0Edd = 'Multijunk'
1 89983U 00000AAQ 22048.49919926  .00000000  00000-0  00000-0 0 15270
2 89983 024.1345 349.7675 7387225 349.0285 307.6453 00.39196636    05

# Worst residual: 92.43 km
# MJD 59628.000000 (2022 Feb 18  0:00)
C1AUGE1 = ZTF0Edd = 'Multijunk'
1 89983U 00000AAQ 22049.49919926  .00000000  00000-0  00000-0 0 15271
2 89983 024.1473 349.7390 7393281 350.3128 087.6069 00.38783753    00

# Worst residual: 116.78 km
# MJD 59629.000000 (2022 Feb 19  0:00)
C1AUGE1 = ZTF0Edd = 'Multijunk'
1 89983U 00000AAQ 22050.49919926  .00000000  00000-0  00000-0 0 15273
2 89983 024.2051 349.6854 7420580 350.9706 224.1489 00.38672926    01
